Name,Address,Latitude,Longitude,Branch,Wheelchair Accessible,Barrier-free safe deposit boxes,Tablets for ASL,ATM,Wheelchair Accessible,Voice-enabled,Braille
RBC,"200 Bay St - Main Floor, Toronto, ON, M5J 2J5",43.64668848,-79.3800808,Y,Y,Y,N,Y,Y,Y,Y
RBC,"126 Simcoe Street, Toronto, ON, M5H 4E6",43.64919361,-79.38691286,N,,,,Y,N,Y,N
RBC,"130 Adelaide St W, Toronto, ON, M5H 3P5",43.64979783,-79.38374352,Y,Y,Y,N,Y,Y,Y,Y
RBC,"661 University Ave, Toronto, ON M5G 1M1",43.65958626,-79.38963752,N,,,,Y,N,Y,N
RBC,"1 King's College Rd, Toronto, ON M5S 1A8",43.66094322,-79.39352765,N,,,,Y,N,Y,N
RBC,"10 Kings College Road, Toronto, ON, M5S 3G4",43.66017358,-79.39479159,N,,,,Y,N,Y,N
RBC,"9 Kings College Road, Toronto, ON, M5S 1A5",43.66220684,-79.39371093,N,,,,Y,N,Y,N
RBC,"443 University Ave, Toronto, ON, M5G 2H6",43.65488067,-79.38782486,Y,N,N,N,Y,N,Y,N
RBC,"474 Spadina Ave, Toronto, ON, M5P 2W7",43.65792729,-79.40032227,N,,,,Y,N,Y,N
RBC,"214 College St, Toronto, ON, M5T 2Z9",43.65917962,-79.39689235,N,,,,Y,N,Y,N
RBC,"55 Harbord St, Toronto, ON, M5S 2W6",43.66296078,-79.40102577,N,,,,Y,N,Y,N
RBC,"468 Dundas Street West, Toronto, ON, M5T 1G9",43.65360097,-79.39671862,Y,Y,Y,N,Y,Y,Y,Y
RBC,"382 Yonge St, Toronto, ON, M5B 1S8",43.65966621,-79.38276532,Y,Y,Y,N,Y,Y,Y,Y
RBC,"7 Hart House Circle, Toronto, ON, M5S 3H3",43.66402536,-79.39447775,N,,,,Y,N,Y,N
RBC,"101 Dundas St W, Toronto, ON, M5G 1C4",43.65567824,-79.38384256,Y,Y,Y,N,Y,Y,Y,Y
RBC,"89 Chestnut St, Toronto, ON, M5S 1R1",43.65419033,-79.38502876,N,,,,Y,N,Y,N
TD,"777 Bay St, Toronto, ON, M5G 2C8",43.66061783,-79.38444517,Y,Y,N,Y,Y,Y,Y,Y
TD,"180 Dundas St W - Suite 100, Toronto, ON, M5G 1Z8",43.65547964,-79.38638633,Y,Y,N,Y,Y,Y,Y,Y
TD,"33 Gerrard St W, Toronto, ON, M5G 1J2",43.65858958,-79.38305045,N,,,,Y,N,Y,N
TD,"444 Yonge St, Toronto, ON, M5B 2H4",43.66079988,-79.3835531,N,,,,Y,N,Y,N
TD,"1 Dundas St W, Toronto, ON, M5G 1Z3",43.6559949,-79.38176205,N,,,,Y,N,Y,N
TD,"290 Yonge St, Toronto, ON, M5B 1C8",43.65595079,-79.38119505,N,,,,Y,N,Y,N
TD,"130 St George St, Toronto, ON, M5S 1A5",43.66450765,-79.39938955,N,,,,Y,N,Y,N
TD,"65 Wellesley St E, Toronto, ON, M4Y 1G7",43.66561291,-79.38121295,Y,Y,N,Y,Y,Y,Y,Y
TD,"301 College St Unit #002, Toronto, ON, M5T 1S2",43.65762358,-79.40161109,Y,N,N,N,Y,N,Y,N
TD,"56 Kensington Ave, Toronto, ON, M5T 2K1",43.65422247,-79.40109516,N,,,,Y,N,Y,N
BMO,"700 University Ave, Toronto, ON M5G 1X7",43.65896412,-79.39096775,Y,Y,N,N,Y,Y,Y,N
BMO,"763 Bay St, Toronto, ON M5G 2R3",43.66026539,-79.38514148,Y,Y,N,N,Y,Y,Y,N
BMO,"438 University Ave, Toronto, ON M5G 2K8",43.65446157,-79.38887579,Y,Y,N,N,Y,Y,Y,N
BMO,"382 Yonge Street Unit #4, Toronto, ON M5B 1S8",43.65948524,-79.3828642,Y,Y,N,N,N,,,
BMO,"291 Spadina Ave, Toronto, ON M5T 2E6",43.65373168,-79.39779787,Y,Y,N,N,Y,Y,Y,N
BMO,"492 Church St, Toronto, ON M4Y 2C8",43.66399103,-79.3803323,Y,Y,N,N,Y,Y,Y,N
BMO,"2 Queen St E, Toronto, ON M5C 3G7",43.65308572,-79.37878256,Y,Y,N,N,Y,Y,Y,N
BMO,"200 King St W, Toronto, ON M5H 3T4",43.64800614,-79.38579802,Y,N,N,N,Y,Y,Y,N
BMO,"100 King St. West, Toronto, ON M5X 1A3",43.64874719,-79.3816909,Y,Y,N,N,Y,Y,Y,N
BMO,"123 Queen Street West, Toronto, ON M5H 2M9",43.65131964,-79.3841716,N,,,,Y,Y,Y,N
BMO,"220 Yonge Street, Toronto, ON M5B 2H1",43.65421187,-79.38068587,N,,,,Y,Y,Y,N
BMO,"145 John Street, Toronto, ON M5V 2E4",43.64942819,-79.39068443,N,,,,Y,Y,Y,N
CIBC,"101 College St, Toronto, ON M5G 1L7",43.66010054,-79.38868086,N,,,,Y,Y,Y,N
CIBC,"790 Bay Street, Toronto, ON M5G 1N8",43.66059848,-79.38614443,Y,Y,N,N,Y,Y,Y,N
CIBC,"460 University Avenue, Toronto, ON M5G 1V1",43.65505972,-79.38885085,Y,Y,N,N,Y,Y,Y,N
CIBC,"103 McCaul Street, Toronto, ON M5T 2W7",43.65367907,-79.39080877,N,,,,Y,Y,Y,N
CIBC,"595 Bay Street, Toronto, ON M5G 2C2",43.65640607,-79.3832909,Y,Y,N,N,Y,Y,Y,N
CIBC,"10 Dundas Street East, Toronto, ON M5B 2G9",43.65695706,-79.38044932,N,,,,Y,Y,Y,N
CIBC,"268 College Street, Toronto, ON M5T 1S1",43.65825819,-79.4005181,Y,Y,N,N,Y,Y,Y,N
CIBC,"483 Bay Street, Toronto, ON M5B 2H1",43.65394573,-79.38214862,N,,,,Y,Y,Y,N
CIBC,"483 Dundas Street West, Toronto, ON M5T 1H1",43.65305889,-79.39725245,Y,Y,N,N,Y,Y,Y,N
