Name,Address,Latitude,Longitude,Entrance,Elevator,Parking
Canadian Tire,"65 Dundas St W, Toronto, ON M5G 2C3, Canada",43.65594751,-79.38295072,Y,Y,Y
Canadian Tire,"839 Yonge St, Toronto, ON M4W 3Z4, Canada",43.67477105,-79.38805115,Y,N,Y
Loblaws,"60 Carlton St, Toronto, ON M5B 1J2, Canada",43.66602383,-79.3795267,Y,Y,N
Loblaws,"585 Queen St W, Toronto, ON M5V 2B7, Canada",43.65360496,-79.40424593,Y,N,Y
Longo's,"111 Elizabeth St, Toronto, ON M5G 1P7, Canada",43.65604402,-79.38485791,Y,Y,N
Longo's,"100 King St W, Toronto, ON M5X 1A9, Canada",43.64883734,-79.38226183,Y,N,Y
Longo's,"181 Bay St., Toronto, ON M5J 2T3, Canada",43.64790538,-79.37881461,Y,Y,N
Longo's,"100 Bloor St E, Toronto, ON M4W 1A7, Canada",43.67144305,-79.38446702,Y,Y,N
Shoppers,"465 Yonge St, Toronto, ON M4Y 1X4, Canada",43.66283623,-79.38300903,Y,N,N
Shoppers,"463 College St, Toronto, ON M6G 4C1, Canada",43.65732913,-79.40829008,Y,N,N
Shoppers,"399 Bathurst St, Toronto, ON M5T 2S8, Canada",43.6547831,-79.40545767,Y,N,N
Shoppers,"524 Queen St W, Toronto, ON M5V 2B5, Canada",43.64931809,-79.40228193,Y,N,N
Shoppers,"260 Queen St W, Toronto, ON M5V 1Z8, Canada",43.65118122,-79.39232557,Y,N,N
Shoppers,"279 Yonge St, Toronto, ON M5B 1N8, Canada",43.65695655,-79.38099592,Y,N,N
Shoppers,"500 King St W, Toronto, ON M5V 1L9, Canada",43.64695805,-79.39738958,Y,N,N
Shoppers,"388 King St W, Toronto, ON M5V 1K2, Canada",43.64782755,-79.39249723,Y,N,N
Shoppers,"66 Wellington St W Unit #29A, Toronto, ON M5K 1A1, Canada",43.64869704,-79.38116758,Y,N,N
Shoppers,"69 Yonge St, Toronto, ON M5E 1K3, Canada",43.65018756,-79.37704771,Y,N,N
Shoppers,"333 Bay St., Toronto, ON M5H 2R2, Canada",43.65198856,-79.37996595,Y,N,N
Shoppers,"761 King St W, Toronto, ON M5V 1N4, Canada",43.64416314,-79.40580099,Y,N,N
Shoppers,"181 Bay St., Toronto, ON M5J 2T3, Canada",43.64813808,-79.37936514,Y,N,N